IRIDIUM 63              
1 25286U 98021B   25364.24756881  .00000685  00000+0  22588-3 0  9990
2 25286  86.3981 359.8658 0002238  83.5075 276.6377 14.36751548451997
IRIDIUM 69              
1 25319U 98026A   25364.07232963  .00000675  00000+0  20305-3 0  9997
2 25319  86.3968  12.6090 0004603  94.0746 266.0980 14.41233739451270
IRIDIUM 71              
1 25320U 98026B   25364.26619458  .00000530  00000+0  15784-3 0  9993
2 25320  86.3971   7.1982 0003526 124.5552 235.5981 14.41330021451838
IRIDIUM 73              
1 25344U 98032C   25364.28319600  .00001171  00000+0  28491-3 0  9995
2 25344  86.4420 323.5328 0002911  78.7651 281.3882 14.52017197459015
IRIDIUM 82              
1 25467U 98051A   25364.30302680  .00062182  00000+0  11012-2 0  9994
2 25467  86.3599  12.2549 0056311 263.8877  95.5964 15.48245895454110
